satname,norad_id,inclination_deg,eccentricity,mean_motion_rev_per_day,perigee_km,apogee_km,l1,l2
STARLINK-1278,45408,53.0436,0.0003292,15.61260988,381.78745842457283,386.2396583522159,1 45408U 20019BA  26096.25002315  .00163408  00000+0  18590-2 0  9990,2 45408  53.0436 356.4678 0003292 160.2489 310.0061 15.61260988  5876
STARLINK-1296,45412,53.1597,0.0002811,15.32794032,465.55637955195834,469.40498581316297,1 45412U 20019BE  26096.10911746  .00081312  00000+0  25159-2 0  9998,2 45412  53.1597   1.6974 0002811 161.3938 198.7167 15.32794032334171
STARLINK-1309,45414,53.0651,0.0006406,15.60591413,381.61455735332856,390.2807025812426,1 45414U 20019BG  26096.25002315  .00138768  00000+0  16248-2 0  9996,2 45414  53.0651 349.9242 0006406 141.7260  19.6897 15.60591413  5875
STARLINK-1316,45415,53.1598,0.0002281,15.32799992,465.90145607411705,469.02441876556713,1 45415U 20019BH  26096.02382156  .00072689  00000+0  22525-2 0  9990,2 45415  53.1598   2.1483 0002281 181.2880 178.8116 15.32799992334188
STARLINK-1286,45417,53.0498,0.0004299,15.53278514,404.24439807423005,410.07839763670654,1 45417U 20019BK  26096.10448313  .00059724  00000+0  93182-3 0  9992,2 45417  53.0498 358.7817 0004299 136.3453 223.7897 15.53278514334481
STARLINK-1308,45419,53.0518,0.0006263,15.5605145,394.8533329593902,403.3424974141526,1 45419U 20019BM  26096.25002315  .00174777  00000+0  24150-2 0  9992,2 45419  53.0518  19.2442 0006263 133.8137  13.8712 15.56051450  5911
STARLINK-1329,45531,53.0451,2.83e-05,15.6619952,369.60019300513795,369.98212573895944,1 45531U 20025A   26095.77704464  .00062657  00000+0  59766-3 0  9999,2 45531  53.0451 309.0782 0000283 245.3466 114.7519 15.66199520329680
STARLINK-1338,45532,53.0468,0.0002878,15.59808552,386.26332856158115,390.15803828816024,1 45532U 20025B   26096.25002315  .00101468  00000+0  12322-2 0  9990,2 45532  53.0468 311.0578 0002878 125.3194 305.6004 15.59808552  5878
STARLINK-1350,45535,53.0721,0.0001588,15.36861405,454.3120263841165,456.48235684337305,1 45535U 20025E   26095.72026496  .00014221  00000+0  39879-3 0  9997,2 45535  53.0721 266.1284 0001588 115.0405 245.0763 15.36861405330315
STARLINK-1362,45538,53.16,0.0001019,15.31150793,471.67957461141395,473.07570949546516,1 45538U 20025H   26096.08271356 -.00101775  00000+0 -33700-2 0  9996,2 45538  53.1600 333.7031 0001019  93.8496 266.2622 15.31150793329377
STARLINK-1368,45540,53.1648,0.0001603,15.30552443,473.06451640951036,475.2613637703025,1 45540U 20025K   26096.03207963  .00050128  00000+0  16749-2 0  9994,2 45540  53.1648 334.3115 0001603 105.0559 255.0619 15.30552443329354
STARLINK-1371,45542,53.0484,0.0001633,15.51836517,410.2553767322552,412.47282779225407,1 45542U 20025M   26095.77633289  .00107914  00000+0  17568-2 0  9996,2 45542  53.0484 319.5805 0001633 188.9688 171.1292 15.51836517329535
STARLINK-1372,45543,53.1589,0.0001275,15.30788136,472.5859850390352,474.3331421627536,1 45543U 20025N   26096.13957534  .00239973  00000+0  77147-2 0  9990,2 45543  53.1589 333.5195 0001275  96.7771 263.3375 15.30788136328470
STARLINK-1373,45544,53.0478,0.0003297,15.55955954,397.1406661226374,401.60975767516356,1 45544U 20025P   26095.91670139  .00107149  00000+0  15018-2 0  9997,2 45544  53.0478 317.6951 0003297 133.8305 231.2968 15.55955954  5815
STARLINK-1327,45555,53.0444,0.0005134,15.5878401,387.69987215518177,394.65060196019203,1 45555U 20025AA  26095.81280101  .00089483  00000+0  11317-2 0  9992,2 45555  53.0444 295.1851 0005134 171.0365 189.0739 15.58784010329878
STARLINK-1356,45564,53.0491,0.0004081,15.49270886,416.0839028166056,421.63160993676047,1 45564U 20025AK  26095.86603639  .00098224  00000+0  17538-2 0  9996,2 45564  53.0491 304.0530 0004081 152.5943 207.5280 15.49270886329755
STARLINK-1357,45565,53.0478,0.0004556,15.61754403,379.50902370135464,385.6693974244199,1 45565U 20025AL  26096.25002315  .00180737  00000+0  20121-2 0  9998,2 45565  53.0478 264.0736 0004556 253.4936 244.6483 15.61754403  5871
STARLINK-1361,45567,53.049,0.0005326,15.52410945,406.07395432375324,413.30434673929994,1 45567U 20025AN  26096.02872631  .00124734  00000+0  19830-2 0  9991,2 45567  53.0490 302.7216 0005326 128.2479 231.9010 15.52410945329792
STARLINK-1363,45568,53.0379,0.0002566,15.84636783,315.62960139320876,319.0657241221361,1 45568U 20025AP  26096.25002315  .00224602  00000+0  93210-3 0  9991,2 45568  53.0379 259.3331 0002566 178.1859  63.4795 15.84636783  5887
STARLINK-1366,45569,53.0386,0.000303,15.83049236,319.7931655532411,323.8533414668682,1 45569U 20025AQ  26096.25002315  .00198743  00000+0  89220-3 0  9994,2 45569  53.0386 260.3554 0003030 170.6891 225.9718 15.83049236  5997
STARLINK-1376,45570,53.1595,0.0001371,15.3279613,466.53590277088733,468.41296942666486,1 45570U 20025AR  26096.00271061  .00077927  00000+0  24127-2 0  9999,2 45570  53.1595 310.7421 0001371 211.7858 148.3061 15.32796130329681
STARLINK-1320,45572,53.0459,0.0003828,15.73824902,345.4023831958184,350.551896181164,1 45572U 20025AT  26096.25002315  .00090814  00000+0  62719-3 0  9992,2 45572  53.0459 209.2666 0003828 111.1790  23.9779 15.73824902  5860
STARLINK-1321,45573,53.0461,0.0002718,15.53418188,404.91052945111005,408.59879655911936,1 45573U 20025AU  26095.91670139  .00154999  00000+0  23662-2 0  9998,2 45573  53.0461 287.6927 0002718 189.5295 313.2294 15.53418188  5905
STARLINK-1331,45578,53.0512,0.0004956,15.53198531,404.03142885274247,410.7572475151501,1 45578U 20025AZ  26096.02927361  .00120379  00000+0  18616-2 0  9996,2 45578  53.0512 293.8579 0004956 201.9625 158.1172 15.53198531329920
STARLINK-1333,45580,53.1603,0.000148,15.30175855,474.27285620900693,476.3014697612507,1 45580U 20025BB  26095.86433029  .00017996  00000+0  61870-3 0  9994,2 45580  53.1603 311.5867 0001480  84.8931 275.2239 15.30175855329665
STARLINK-1335,45581,53.1554,0.0001265,15.29360853,476.85449054229593,478.5890228077351,1 45581U 20025BC  26096.28095272 -.00000998  00000+0 -22249-4 0  9990,2 45581  53.1554 307.0449 0001265  98.3017 261.8127 15.29360853329752
STARLINK-1337,45582,53.0506,0.0004806,15.64052185,372.72001611356427,379.212059953722,1 45582U 20025BD  26096.25002315  .00137741  00000+0  14105-2 0  9999,2 45582  53.0506 287.3934 0004806 218.0414 300.4292 15.64052185  5887
STARLINK-1347,45586,53.0412,0.0001807,15.60129871,386.05909120762226,388.5041134905114,1 45586U 20025BH  26096.25002315  .00186814  00000+0  22123-2 0  9997,2 45586  53.0412 255.8400 0001807 223.2718 303.5367 15.60129871  5923
STARLINK-1364,45589,53.0483,0.0005849,15.54642881,399.2245302372885,407.1573276485651,1 45589U 20025BL  26095.91670139  .00139463  00000+0  20401-2 0  9992,2 45589  53.0483 292.1732 0005849 170.6350 124.0776 15.54642881  5860
STARLINK-1365,45590,53.0512,0.000402,15.49871865,414.3688868369145,419.83225784507613,1 45590U 20025BM  26095.92382201  .00110557  00000+0  19287-2 0  9998,2 45590  53.0512 323.3672 0004020 155.9628 204.1568 15.49871865329508
STARLINK-1443,45660,53.1374,0.0002435,15.27760378,480.83846525037643,484.1795998682328,1 45660U 20035D   26096.28173581  .00065932  00000+0  23906-2 0  9995,2 45660  53.1374 297.4258 0002435 171.1418 188.9625 15.27760378322978
STARLINK-1446,45663,53.0245,0.0002502,15.44118329,432.2655313193618,435.6743096223645,1 45663U 20035G   26095.55376421  .00023733  00000+0  51795-3 0  9996,2 45663  53.0245 231.6566 0002502  11.7410 348.3653 15.44118329323825
STARLINK-1448,45665,53.0477,0.0005901,15.58620215,387.65463460813135,395.64433661845214,1 45665U 20035J   26096.25002315  .00152486  00000+0  19206-2 0  9992,2 45665  53.0477 279.4484 0005901 202.2147 326.5754 15.58620215  5928
STARLINK-1451,45668,53.0525,0.0001476,15.11555495,530.4357797061775,532.4754914522009,1 45668U 20035M   26096.00236222  .00030647  00000+0  17960-2 0  9993,2 45668  53.0525 302.6128 0001476 110.8562 249.2588 15.11555495322875
STARLINK-1452,45669,53.0295,0.0003346,15.4914024,416.96549622630937,421.51430084681033,1 45669U 20035N   26095.74682549  .00066654  00000+0  12031-2 0  9992,2 45669  53.0295 252.3976 0003346 155.1157 205.0012 15.49140240323559
STARLINK-1453,45670,53.0438,9.06e-05,15.59020905,389.87624566743216,391.10272078619346,1 45670U 20035P   26096.25002315  .00217930  00000+0  26803-2 0  9995,2 45670  53.0438 239.9680 0000906 151.3564  98.7542 15.59020905  5921
STARLINK-1454,45671,53.0473,0.0005442,15.57128585,392.2856749533594,399.6586153469407,1 45671U 20035Q   26096.25002315  .00150555  00000+0  20061-2 0  9995,2 45671  53.0473 279.8403 0005442 185.1404  11.4018 15.57128585  5915
STARLINK-1456,45673,53.0467,0.0003551,15.55104447,399.441458785147,404.2566048649496,1 45673U 20035S   26096.25002315  .00144114  00000+0  20721-2 0  9994,2 45673  53.0467 273.6334 0003551 263.2777 148.5992 15.55104447  5715
STARLINK-1457,45674,53.042,0.0002345,15.88162424,305.8671326120275,309.00266583276243,1 45674U 20035T   26096.25002315  .00288556  00000+0  10006-2 0  9999,2 45674  53.0420 243.5445 0002345 229.7925  72.6642 15.88162424  6003
STARLINK-1458,45675,53.0509,0.0005093,15.47093419,421.76895500725095,428.6988686180239,1 45675U 20035U   26095.91670139  .00139310  00000+0  26654-2 0  9996,2 45675  53.0509 285.8799 0005093 192.0157 175.3686 15.47093419  5780
STARLINK-1460,45676,53.1589,0.0001281,15.30209394,474.30910996503644,476.064931579157,1 45676U 20035V   26095.83529712  .00009027  00000+0  31645-3 0  9996,2 45676  53.1589 298.8587 0001281  81.8827 278.2319 15.30209394322874
STARLINK-1392,45677,53.1554,0.0001143,15.29377148,476.8894395834377,478.4566777628497,1 45677U 20035W   26095.97346578  .00010954  00000+0  39110-3 0  9995,2 45677  53.1554 298.1823 0001143  85.9003 274.2128 15.29377148322933
STARLINK-1394,45679,53.0456,0.0004773,15.5513008,398.5384774487484,405.0105809945435,1 45679U 20035Y   26096.25002315  .00152916  00000+0  21933-2 0  9995,2 45679  53.0456 263.8553 0004773 268.8417 160.2426 15.55130080  5863
